{"type":"FeatureCollection","name":"SWALIM flood risk fallback","source":"Local integration fallback; official FAO SWALIM WFS is attempted first","features":[{"type":"Feature","properties":{"basin_name":"Lower Shabelle","risk_class":"High"},"geometry":{"type":"Polygon","coordinates":[[[44.0,0.8],[45.3,0.8],[45.5,2.2],[44.2,2.2],[44.0,0.8]]]}},{"type":"Feature","properties":{"basin_name":"Lower Jubba","risk_class":"Moderate"},"geometry":{"type":"Polygon","coordinates":[[[41.9,-0.5],[42.9,-0.5],[43.0,1.2],[42.0,1.2],[41.9,-0.5]]]}}]}
