{"type":"FeatureCollection","name":"SWALIM hydrology fallback","source":"Local integration fallback; official FAO SWALIM WFS is attempted first","features":[{"type":"Feature","properties":{"basin_name":"Jubba","river_name":"Jubba River"},"geometry":{"type":"LineString","coordinates":[[42.2,4.4],[42.4,3.2],[42.7,2.0],[42.5,0.8],[42.55,-0.35]]}},{"type":"Feature","properties":{"basin_name":"Shabelle","river_name":"Shabelle River"},"geometry":{"type":"LineString","coordinates":[[45.0,5.0],[45.2,3.9],[45.35,2.7],[44.8,1.8],[44.2,1.1]]}}]}
