{"type":"FeatureCollection","name":"SWALIM land degradation fallback","source":"Local integration fallback; official FAO SWALIM WFS is attempted first","features":[{"type":"Feature","properties":{"erosion_type":"Wind erosion","severity":"Slight","basin_name":"Northern interior"},"geometry":{"type":"Polygon","coordinates":[[[45,7],[49,7],[49,9],[45,9],[45,7]]]}},{"type":"Feature","properties":{"erosion_type":"Sheet erosion","severity":"Moderate","basin_name":"Central Somalia"},"geometry":{"type":"Polygon","coordinates":[[[44,3],[48,3],[48,6],[44,6],[44,3]]]}},{"type":"Feature","properties":{"erosion_type":"Gully erosion","severity":"Severe","basin_name":"Jubba Shabelle inter-riverine"},"geometry":{"type":"Polygon","coordinates":[[[42,0],[46,0],[46,3],[42,3],[42,0]]]}}]}
