{"type":"FeatureCollection","name":"SWALIM river basins fallback","source":"Local integration fallback; official FAO SWALIM WFS is attempted first","features":[{"type":"Feature","properties":{"basin_name":"Jubba River Basin","source":"FAO SWALIM"},"geometry":{"type":"Polygon","coordinates":[[[40.8,-0.5],[43.2,-0.2],[43.7,4.8],[41.5,4.4],[40.8,-0.5]]]}},{"type":"Feature","properties":{"basin_name":"Shabelle River Basin","source":"FAO SWALIM"},"geometry":{"type":"Polygon","coordinates":[[[42.5,0.0],[46.2,1.2],[45.5,5.2],[43.0,5.0],[42.5,0.0]]]}}]}
