{"type":"FeatureCollection","name":"SWALIM water points fallback","source":"Local integration fallback; official FAO SWALIM WFS is attempted first","features":[{"type":"Feature","properties":{"point_name":"Hargeysa Borehole Cluster","water_depth_m":85,"salinity_status":"Fresh","water_source_type":"Borehole"},"geometry":{"type":"Point","coordinates":[44.07,9.56]}},{"type":"Feature","properties":{"point_name":"Garoowe Shallow Well","water_depth_m":24,"salinity_status":"Moderate","water_source_type":"Shallow well"},"geometry":{"type":"Point","coordinates":[48.48,8.41]}},{"type":"Feature","properties":{"point_name":"Baydhaba Berkad","water_depth_m":0,"salinity_status":"Fresh","water_source_type":"Berkad"},"geometry":{"type":"Point","coordinates":[43.65,3.12]}}]}
