{"type":"FeatureCollection","metadata":{"source":"GADM 4.1","layer":"ETH ADM2 \u2014 Somali Region zones","features":9,"provenance_note":"Official vector zone boundaries. Woredas (ADM3) are served live from geoBoundaries when online."},"features":[{"type":"Feature","geometry":{"type":"MultiPolygon","coordinates":[[[[42.7727,4.2647],[42.7558,4.2506],[42.7305,4.2431],[42.7148,4.2322],[42.692,4.2245],[42.6521,4.2184],[42.6388,4.2073],[42.6119,4.2098],[42.5962,4.1989],[42.5742,4.201],[42.5459,4.1864],[42.519,4.1888],[42.4359,4.167],[42.3962,4.1633],[42.3446,4.1656],[42.3049,4.1619],[42.2039,4.1614],[42.158,4.1435],[42.1152,4.1327],[42.0782,4.1312],[42.0574,4.1184],[42.0576,4.1504],[42.0646,4.1743],[42.0625,4.2065],[42.0572,4.2316],[42.0416,4.2502],[42.0275,4.2589],[42.0084,4.2656],[41.9815,4.2681],[41.9553,4.2779],[41.9264,4.2855],[41.9034,4.3048],[41.8929,4.3255],[41.8644,4.3675],[41.8608,4.3826],[41.8423,4.3966],[41.8358,4.407],[41.8244,4.4179],[41.8053,4.4246],[41.7919,4.4406],[41.7791,4.4639],[41.7677,4.4748],[41.7556,4.5055],[41.7403,4.529],[41.7212,4.5507],[41.6959,4.5848],[41.6867,4.593],[41.6787,4.6102],[41.6514,4.6593],[41.6417,4.6739],[41.6307,4.6981],[41.5882,4.7696],[41.5724,4.7914],[41.56,4.8299],[41.5514,4.8483],[41.5385,4.8657],[41.529,4.8859],[41.5143,4.9095],[41.4954,4.9302],[41.4773,4.9618],[41.4619,4.9828],[41.4357,4.9969],[41.4116,5.0075],[41.4042,5.0148],[41.3874,5.0456],[41.3595,5.0901],[41.3275,5.1511],[41.3124,5.1655],[41.3107,5.1824],[41.3122,5.2052],[41.3045,5.261],[41.3057,5.2795],[41.3015,5.3011],[41.2933,5.3299],[41.2846,5.3527],[41.2583,5.3764],[41.2392,5.4012],[41.2303,5.4193],[41.2117,5.4463],[41.1811,5.4842],[41.1774,5.506],[41.1614,5.5301],[41.1647,5.548],[41.1505,5.5545],[41.1278,5.6146],[41.1171,5.6343],[41.0732,5.6402],[41.0516,5.6606],[41.0408,5.6786],[41.0074,5.6894],[40.9821,5.6918],[40.9223,5.6834],[40.8748,5.8079],[40.8784,5.9875],[40.8712,6.0558],[40.8667,6.0766],[40.8695,6.0945],[40.8664,6.1138],[40.8664,6.1337],[40.8679,6.1513],[40.878,6.1877],[40.8816,6.2443],[40.8797,6.2665],[40.8645,6.3203],[40.8619,6.3457],[40.8644,6.3523],[40.861,6.3611],[40.8567,6.3859],[40.8604,6.4362],[40.8856,6.4721],[40.9001,6.5116],[40.9361,6.5512],[40.99,6.6042],[41.0155,6.6446],[41.0712,6.6879],[41.0721,6.6943],[41.131,6.6913],[41.1563,6.6769],[41.1743,6.6589],[41.2285,6.623],[41.3584,6.5655],[41.38,6.5655],[41.4378,6.544],[41.528,6.4649],[41.6197,6.3617],[41.6334,6.3914],[41.6561,6.4092],[41.6842,6.4241],[41.6903,6.4294],[41.7045,6.4524],[41.7389,6.5199],[41.7579,6.5405],[41.7988,6.5575],[41.8197,6.5705],[41.8537,6.5689],[41.8607,6.5353],[41.888,6.5353],[41.9364,6.5532],[41.9995,6.5898],[42.004,6.5976],[42.0411,6.5818],[42.1011,6.5437],[42.1186,6.5121],[42.1215,6.4989],[42.155,6.4586],[42.2534,6.3926],[42.2654,6.3634],[42.297,6.337],[42.3635,6.3173],[42.4519,6.3093],[42.481,6.3095],[42.5087,6.2994],[42.5514,6.291],[42.5643,6.2846],[42.6098,6.2691],[42.644,6.2644],[42.7026,6.25],[42.7418,6.2479],[42.7618,6.2375],[42.7798,6.2037],[42.8028,6.176],[42.8245,6.1377],[42.8478,6.1274],[42.9098,6.1047],[42.9793,6.0908],[43.0036,6.0903],[42.9126,5.9823],[42.7257,5.756],[42.7327,5.7419],[42.7572,5.7322],[42.7911,5.7145],[42.8305,5.7032],[42.8458,5.694],[42.8607,5.6915],[42.8956,5.6816],[42.9149,5.6731],[42.9389,5.6664],[42.987,5.6553],[43.0152,5.654],[43.0513,5.6421],[43.1337,5.6376],[43.1513,5.6481],[43.1639,5.6519],[43.189,5.6637],[43.2218,5.6583],[43.2765,5.654],[43.4344,5.6465],[43.4723,5.6578],[43.4998,5.6626],[43.5202,5.6706],[43.5434,5.6832],[43.5789,5.6947],[43.5921,5.7057],[43.6254,5.7199],[43.6547,5.7467],[43.6686,5.7651],[43.6721,5.7771],[43.6825,5.7835],[43.6936,5.7972],[43.7065,5.8081],[43.7225,5.8191],[43.7543,5.8162],[43.7786,5.8102],[43.8065,5.7815],[43.8256,5.77],[43.8385,5.7665],[43.8704,5.7352],[43.8958,5.7156],[43.9113,5.6945],[43.9472,5.6543],[43.9922,5.6329],[44.062,5.6141],[44.0935,5.6088],[44.1112,5.5929],[44.1766,5.5716],[44.2048,5.5584],[44.2486,5.5501],[44.2752,5.5157],[44.286,5.4975],[44.3,5.4888],[44.3134,5.4728],[44.35,5.4399],[44.3612,5.4266],[44.387,5.4119],[44.4149,5.391],[44.5095,5.3454],[44.5847,5.304],[44.6161,5.2962],[44.6517,5.2806],[44.6675,5.2643],[44.746,5.203],[44.7643,5.1865],[44.8047,5.1409],[44.8486,5.0778],[44.8778,5.0456],[44.9148,5.0176],[44.9282,5.0016],[44.949,4.9849],[45.0017,4.9322],[44.9621,4.9189],[44.9032,4.9127],[44.827,4.9126],[44.7313,4.9184],[44.6782,4.9131],[44.6264,4.9223],[44.547,4.9212],[44.3833,4.9364],[44.3069,4.9361],[44.2012,4.9385],[44.1501,4.9457],[44.1229,4.9433],[44.0778,4.9351],[44.029,4.9397],[43.8937,4.9128],[43.8639,4.9106],[43.8438,4.9051],[43.8063,4.8988],[43.7879,4.8857],[43.7557,4.8838],[43.7129,4.873],[43.6826,4.8635],[43.6223,4.8494],[43.6121,4.8454],[43.5996,4.8441],[43.5795,4.8386],[43.5691,4.8321],[43.5518,4.8313],[43.5259,4.8165],[43.5106,4.8105],[43.4882,4.8077],[43.4556,4.8008],[43.4274,4.7887],[43.3975,4.7841],[43.3842,4.773],[43.374,4.769],[43.3565,4.7657],[43.3532,4.7562],[43.3247,4.7391],[43.3072,4.7358],[43.2866,4.7254],[43.2704,4.7097],[43.25,4.7018],[43.2295,4.6914],[43.2009,4.6743],[43.1626,4.6582],[43.1516,4.6445],[43.1097,4.6163],[43.0832,4.5942],[43.0671,4.5785],[43.033,4.5546],[43.0267,4.5379],[43.0128,4.5195],[43.0076,4.488],[42.9911,4.4674],[42.9733,4.4322],[42.9576,4.4213],[42.948,4.3952],[42.9163,4.371],[42.9027,4.3551],[42.8894,4.344],[42.8739,4.3356],[42.8604,4.3221],[42.829,4.3004],[42.8153,4.2844],[42.8023,4.2758],[42.777,4.2683],[42.7727,4.2647]]]]},"properties":{"feature_type":"ogaden_admin_boundary","ADMIN_LEVEL":2,"ZONE_NAME":"Afder","ZONE_GADM_NAME":"Afder","REGION":"Somali (Ogaden)","COUNTRY":"Ethiopia","AREA_KM2":62134.4,"GID":"ETH.9.1_1","source":"GADM 4.1 ETH ADM2 (official vector boundaries)"}},{"type":"Feature","geometry":{"type":"MultiPolygon","coordinates":[[[[46.5302,6.5196],[46.1772,6.1534],[46.1218,6.09],[45.9453,5.9097],[45.7936,5.9846],[45.5952,6.0676],[45.1954,6.2411],[45.1557,6.2993],[45.1607,6.3586],[45.1504,6.3784],[45.1447,6.418],[45.1266,6.4531],[45.119,6.4871],[45.1214,6.515],[45.1081,6.5654],[45.1104,6.5916],[45.0951,6.6193],[45.089,6.6497],[45.0824,6.6556],[45.0739,6.6792],[45.059,6.7038],[44.9963,6.7795],[44.9721,6.8046],[44.9622,6.8125],[44.9503,6.8509],[44.9426,6.8639],[44.9313,6.8755],[44.9109,6.9037],[44.8898,6.925],[44.8732,6.9332],[44.8518,6.9743],[44.8077,7.026],[44.797,7.0472],[44.7663,7.0737],[44.7512,7.1106],[44.7316,7.1282],[44.7287,7.1566],[44.7299,7.1705],[44.706,7.1991],[44.6914,7.2222],[44.6731,7.246],[44.6541,7.2917],[44.6383,7.3125],[44.63,7.3378],[44.6252,7.3646],[44.6034,7.4176],[44.5885,7.4488],[44.5722,7.5047],[44.563,7.5214],[44.5612,7.5409],[44.543,7.5775],[44.5377,7.612],[44.5381,7.6203],[44.5169,7.6507],[44.5176,7.661],[44.6032,7.6411],[44.6446,7.6345],[44.6633,7.6239],[44.9026,7.596],[44.9327,7.6284],[44.9735,7.6477],[44.9995,7.6545],[45.0293,7.6794],[45.0609,7.6972],[45.0855,7.7157],[45.1304,7.7553],[45.1694,7.7794],[45.2507,7.8387],[45.2641,7.8605],[45.3453,7.9198],[45.3751,7.9447],[45.4021,7.963],[45.4453,8.0097],[45.4661,8.0377],[45.4725,8.0579],[45.5132,8.1025],[45.5291,8.1264],[45.5513,8.1704],[45.5581,8.1952],[45.5649,8.2476],[45.5741,8.2744],[45.5893,8.3444],[45.6029,8.3685],[45.6121,8.3953],[45.6208,8.4429],[46.7358,8.0703],[46.9993,7.9851],[47.9582,8.0126],[46.8036,6.8033],[46.5302,6.5196]]]]},"properties":{"feature_type":"ogaden_admin_boundary","ADMIN_LEVEL":2,"ZONE_NAME":"Doollo (Wardheer)","ZONE_GADM_NAME":"Doolo","REGION":"Somali (Ogaden)","COUNTRY":"Ethiopia","AREA_KM2":52437.8,"GID":"ETH.9.2_1","source":"GADM 4.1 ETH ADM2 (official vector boundaries)"}},{"type":"Feature","geometry":{"type":"MultiPolygon","coordinates":[[[[42.6443,9.073],[42.6193,9.0893],[42.5993,9.1062],[42.6094,9.1185],[42.626,9.1321],[42.6351,9.144],[42.6347,9.1585],[42.6143,9.174],[42.5955,9.1936],[42.5836,9.2154],[42.5796,9.2375],[42.571,9.2582],[42.5611,9.2703],[42.5514,9.2866],[42.547,9.3052],[42.5563,9.3211],[42.5516,9.3452],[42.5375,9.373],[42.5522,9.3821],[42.5671,9.3961],[42.5849,9.4092],[42.6035,9.4166],[42.6409,9.4475],[42.6558,9.4559],[42.6661,9.4587],[42.682,9.4699],[42.7147,9.4745],[42.7287,9.4829],[42.7361,9.4951],[42.7473,9.5016],[42.7763,9.5119],[42.7875,9.5231],[42.8136,9.5726],[42.8407,9.5829],[42.8641,9.5866],[42.8799,9.5847],[42.8921,9.5745],[42.9089,9.5632],[42.921,9.5651],[42.9434,9.5875],[42.9686,9.5922],[42.9798,9.6071],[42.978,9.6286],[42.964,9.6557],[42.9509,9.6725],[42.935,9.68],[42.9257,9.6725],[42.9173,9.6576],[42.9079,9.6501],[42.8977,9.6501],[42.8538,9.6622],[42.823,9.6744],[42.7903,9.693],[42.7305,9.7211],[42.7137,9.7407],[42.7035,9.7584],[42.6941,9.7687],[42.681,9.7743],[42.6638,9.7765],[42.6622,9.7909],[42.6763,9.8044],[42.6874,9.8256],[42.7017,9.841],[42.7298,9.8662],[42.7365,9.9008],[42.7457,9.9221],[42.7587,9.9654],[42.7576,9.9952],[42.7464,10.0166],[42.7282,10.0423],[42.7203,10.0579],[42.7143,10.0839],[42.747,10.1034],[42.77,10.1097],[42.8022,10.1236],[42.8298,10.1492],[42.8837,10.1864],[42.9667,10.0988],[42.9703,10.0898],[42.9939,10.0805],[43.0045,10.0694],[43.0121,10.0573],[43.0213,10.0478],[43.0262,10.0373],[43.0407,10.0216],[43.052,10.0033],[43.063,9.9965],[43.0657,9.9776],[43.0781,9.9549],[43.081,9.9388],[43.0922,9.9349],[43.0983,9.9214],[43.1364,9.9136],[43.1428,9.9044],[43.1583,9.9001],[43.1673,9.8877],[43.1997,9.8804],[43.2134,9.872],[43.2223,9.8582],[43.2315,9.8487],[43.2379,9.8395],[43.2514,9.8282],[43.2496,9.791],[43.2561,9.7832],[43.2636,9.7696],[43.265,9.7523],[43.2741,9.7414],[43.2742,9.7255],[43.2721,9.7171],[43.275,9.701],[43.2872,9.6927],[43.2889,9.6782],[43.298,9.6673],[43.3011,9.6527],[43.307,9.6377],[43.3178,9.6296],[43.3358,9.6049],[43.3451,9.5954],[43.3564,9.5771],[43.3553,9.5643],[43.3677,9.5574],[43.3793,9.542],[43.388,9.5254],[43.4054,9.5108],[43.4155,9.4769],[43.4473,9.4571],[43.4557,9.4471],[43.4662,9.4405],[43.4825,9.4353],[43.4924,9.4214],[43.4968,9.4081],[43.5343,9.4055],[43.5463,9.4009],[43.5541,9.3896],[43.5696,9.3847],[43.5814,9.3783],[43.5975,9.3609],[43.6245,9.3461],[43.6288,9.3351],[43.6537,9.317],[43.6668,9.3052],[43.6822,9.2791],[43.7096,9.2695],[43.7246,9.2593],[43.7358,9.2459],[43.7611,9.2313],[43.7705,9.2181],[43.804,9.1973],[43.8429,9.1567],[43.8663,9.1422],[43.8841,9.123],[43.9123,9.1027],[43.9585,9.065],[43.9755,9.037],[43.971,9.0251],[43.954,9.0125],[43.9337,9.0021],[43.8921,8.9901],[43.8774,8.9826],[43.8593,8.9773],[43.779,8.9671],[43.7476,8.9717],[43.7297,8.9681],[43.7056,8.9545],[43.6917,8.9769],[43.6785,8.9887],[43.6678,9.0073],[43.6548,9.0208],[43.6278,9.0551],[43.6109,9.0637],[43.5892,9.078],[43.5678,9.0958],[43.5489,9.107],[43.5357,9.0823],[43.5215,9.0688],[43.5025,9.041],[43.4865,9.0054],[43.4742,8.9917],[43.4614,8.9725],[43.4491,8.9589],[43.4339,8.9325],[43.3986,8.9099],[43.3818,8.8873],[43.3626,8.8799],[43.347,8.8702],[43.3301,8.868],[43.3178,8.8544],[43.3066,8.8536],[43.2995,8.8357],[43.2934,8.8289],[43.3078,8.7812],[43.3143,8.7695],[43.3262,8.7573],[43.3338,8.7381],[43.3342,8.7214],[43.3322,8.6975],[43.3289,8.6812],[43.3242,8.6686],[43.314,8.6585],[43.293,8.6512],[43.2731,8.6567],[43.2628,8.6669],[43.2603,8.6801],[43.2611,8.6893],[43.2523,8.6957],[43.2407,8.7115],[43.226,8.7129],[43.2146,8.7092],[43.2028,8.7021],[43.1781,8.6951],[43.1682,8.6868],[43.1495,8.6848],[43.1359,8.6787],[43.126,8.6703],[43.1157,8.6583],[43.0298,8.6292],[43.0002,8.6523],[42.9909,8.6736],[42.9758,8.6916],[42.9637,8.702],[42.9478,8.7331],[42.9469,8.7443],[42.9387,8.7562],[42.9083,8.7701],[42.8918,8.7716],[42.8906,8.7791],[42.8817,8.7836],[42.8575,8.7851],[42.8654,8.8044],[42.8653,8.8251],[42.8495,8.8443],[42.8052,8.87],[42.7612,8.9177],[42.7306,8.948],[42.7031,8.9809],[42.6801,9.015],[42.6623,9.049],[42.6443,9.073]]]]},"properties":{"feature_type":"ogaden_admin_boundary","ADMIN_LEVEL":2,"ZONE_NAME":"Faafan (Jigjiga)","ZONE_GADM_NAME":"Fafan","REGION":"Somali (Ogaden)","COUNTRY":"Ethiopia","AREA_KM2":12081.3,"GID":"ETH.9.3_1","source":"GADM 4.1 ETH ADM2 (official vector boundaries)"}},{"type":"Feature","geometry":{"type":"MultiPolygon","coordinates":[[[[43.5892,9.078],[43.6109,9.0637],[43.6278,9.0551],[43.6548,9.0208],[43.6678,9.0073],[43.6785,8.9887],[43.6917,8.9769],[43.7056,8.9545],[43.7297,8.9681],[43.7476,8.9717],[43.779,8.9671],[43.8593,8.9773],[43.8774,8.9826],[43.8921,8.9901],[43.9337,9.0021],[43.954,9.0125],[43.971,9.0251],[43.9755,9.037],[44.0028,9.0305],[44.0184,9.0245],[44.0353,9.0068],[44.0531,8.9982],[44.0612,8.9859],[44.1215,8.9619],[44.1564,8.938],[45.6208,8.4429],[45.6121,8.3953],[45.6029,8.3685],[45.5893,8.3444],[45.5741,8.2744],[45.5649,8.2476],[45.5581,8.1952],[45.5513,8.1704],[45.5291,8.1264],[45.5132,8.1025],[45.4725,8.0579],[45.4661,8.0377],[45.4453,8.0097],[45.4021,7.963],[45.3751,7.9447],[45.3453,7.9198],[45.2641,7.8605],[45.2507,7.8387],[45.1694,7.7794],[45.1304,7.7553],[45.0855,7.7157],[45.0609,7.6972],[45.0293,7.6794],[44.9995,7.6545],[44.9735,7.6477],[44.9327,7.6284],[44.9026,7.596],[44.6633,7.6239],[44.6446,7.6345],[44.6032,7.6411],[44.5176,7.661],[44.5169,7.6507],[44.4647,7.6595],[44.4291,7.6686],[44.3205,7.6903],[44.2413,7.6991],[44.1213,7.7058],[44.0965,7.7052],[44.0726,7.6972],[44.037,7.6889],[44.0212,7.6896],[44.0113,7.6851],[43.9747,7.6753],[43.8958,7.6434],[43.8828,7.6416],[43.8723,7.6343],[43.7905,7.6009],[43.7522,7.5827],[43.7246,7.5622],[43.7037,7.556],[43.6947,7.5459],[43.6847,7.5401],[43.6743,7.5301],[43.6541,7.5171],[43.6371,7.5091],[43.5991,7.4787],[43.5637,7.4616],[43.539,7.4435],[43.5101,7.4394],[43.4905,7.4167],[43.4674,7.4012],[43.4585,7.3925],[43.4523,7.3836],[43.4395,7.378],[43.425,7.3671],[43.4075,7.3687],[43.3872,7.3543],[43.3558,7.3368],[43.3284,7.3189],[43.2949,7.3098],[43.2687,7.2891],[43.2516,7.2799],[43.2278,7.2725],[43.2113,7.2537],[43.1782,7.2336],[43.1026,7.1768],[43.087,7.1687],[43.055,7.1445],[43.032,7.1303],[43.0151,7.1237],[42.996,7.1065],[42.9712,7.1033],[42.9515,7.0957],[42.9216,7.0794],[42.9147,7.0787],[42.9018,7.0554],[42.8785,7.0535],[42.8673,7.0491],[42.852,7.0536],[42.8513,7.0696],[42.853,7.0885],[42.8555,7.1018],[42.865,7.1336],[42.8739,7.1422],[42.8845,7.1711],[42.9011,7.2063],[42.9152,7.243],[42.9226,7.2505],[42.9289,7.2608],[42.941,7.2746],[42.9587,7.2906],[42.9625,7.3039],[42.97,7.3113],[42.9755,7.3285],[42.9793,7.3567],[42.991,7.3665],[42.9934,7.3785],[43.0,7.3914],[43.0124,7.4093],[43.0243,7.4218],[43.0312,7.4388],[43.0325,7.4537],[43.0363,7.4669],[43.0508,7.4764],[43.0518,7.4886],[43.0696,7.5222],[43.0714,7.5424],[43.0868,7.5641],[43.0904,7.5896],[43.102,7.598],[43.1173,7.6184],[43.1238,7.63],[43.1263,7.6433],[43.1374,7.6776],[43.1509,7.709],[43.0676,7.7118],[43.0586,7.7077],[43.0298,7.7006],[43.0126,7.7009],[42.9756,7.6982],[42.9225,7.7092],[42.9104,7.7104],[42.8924,7.7157],[42.8642,7.7306],[42.8391,7.7378],[42.807,7.7506],[42.7884,7.7536],[42.7735,7.761],[42.7549,7.776],[42.7536,7.7843],[42.7446,7.7972],[42.7328,7.8024],[42.7295,7.8108],[42.729,7.8291],[42.7317,7.8457],[42.7317,7.8919],[42.7352,7.9179],[42.7246,7.9478],[42.7223,7.9823],[42.7159,8.0],[42.7133,8.0463],[42.7031,8.0657],[42.7011,8.0896],[42.6877,8.1172],[42.6841,8.1373],[42.6785,8.1473],[42.7016,8.1796],[42.7112,8.2068],[42.7191,8.2457],[42.7349,8.2944],[42.7539,8.3371],[42.7682,8.3632],[42.7794,8.3733],[42.7982,8.3701],[42.8581,8.3917],[42.8844,8.3985],[42.8988,8.4091],[42.897,8.4578],[42.9108,8.4988],[42.9124,8.5221],[42.9076,8.549],[42.9053,8.5822],[42.8988,8.6027],[42.8599,8.6363],[42.8384,8.6644],[42.832,8.6952],[42.8371,8.7278],[42.8439,8.7579],[42.8575,8.7851],[42.8633,8.7853],[42.8817,8.7836],[42.8906,8.7791],[42.8918,8.7716],[42.9083,8.7701],[42.9387,8.7562],[42.9469,8.7443],[42.9478,8.7331],[42.9637,8.702],[42.9758,8.6916],[42.9909,8.6736],[43.0002,8.6523],[43.0298,8.6292],[43.1157,8.6583],[43.126,8.6703],[43.1359,8.6787],[43.1495,8.6848],[43.1682,8.6868],[43.1781,8.6951],[43.2028,8.7021],[43.2146,8.7092],[43.226,8.7129],[43.2407,8.7115],[43.2523,8.6957],[43.2611,8.6893],[43.2603,8.6801],[43.2628,8.6669],[43.2731,8.6567],[43.293,8.6512],[43.314,8.6585],[43.3242,8.6686],[43.3289,8.6812],[43.3322,8.6975],[43.3342,8.7214],[43.3338,8.7381],[43.3262,8.7573],[43.3143,8.7695],[43.3078,8.7812],[43.2934,8.8289],[43.2995,8.8357],[43.3066,8.8536],[43.3178,8.8544],[43.3301,8.868],[43.347,8.8702],[43.3626,8.8799],[43.3818,8.8873],[43.3986,8.9099],[43.4339,8.9325],[43.4491,8.9589],[43.4614,8.9725],[43.4742,8.9917],[43.4865,9.0054],[43.5025,9.041],[43.5215,9.0688],[43.5357,9.0823],[43.5489,9.107],[43.5678,9.0958],[43.5892,9.078]]]]},"properties":{"feature_type":"ogaden_admin_boundary","ADMIN_LEVEL":2,"ZONE_NAME":"Jarar (Degahbur)","ZONE_GADM_NAME":"Jarar","REGION":"Somali (Ogaden)","COUNTRY":"Ethiopia","AREA_KM2":39543.5,"GID":"ETH.9.4_1","source":"GADM 4.1 ETH ADM2 (official vector boundaries)"}},{"type":"Feature","geometry":{"type":"MultiPolygon","coordinates":[[[[44.9721,6.8046],[44.9963,6.7795],[45.059,6.7038],[45.0739,6.6792],[45.0824,6.6556],[45.089,6.6497],[45.0951,6.6193],[45.1104,6.5916],[45.1081,6.5654],[45.1214,6.515],[45.119,6.4871],[45.1266,6.4531],[45.1447,6.418],[45.1504,6.3784],[45.1607,6.3586],[45.1557,6.2993],[45.1954,6.2411],[45.5952,6.0676],[45.7936,5.9846],[45.9453,5.9097],[45.8984,5.8569],[45.6682,5.6223],[45.5359,5.7199],[45.0985,5.7559],[44.954,5.7759],[44.9077,5.7781],[44.8908,5.7764],[44.8865,5.7815],[44.8673,5.7806],[44.6872,5.7973],[44.661,5.7971],[44.6266,5.8095],[44.5832,5.814],[44.4702,5.8439],[44.4347,5.8646],[44.3598,5.8663],[44.3098,5.8791],[44.2627,5.879],[44.2238,5.8944],[44.1975,5.9163],[44.1669,5.9249],[44.1533,5.9318],[44.1249,5.9429],[44.1063,5.9581],[44.0839,5.9672],[44.0657,5.9817],[44.0499,5.9974],[44.0114,6.0123],[43.9897,6.0257],[43.9542,6.0432],[43.9318,6.0466],[43.9039,6.0698],[43.9094,6.0933],[43.9071,6.1215],[43.8944,6.1397],[43.8898,6.1856],[43.8859,6.2059],[43.8708,6.23],[43.8645,6.2562],[43.8491,6.2747],[43.8425,6.2981],[43.8298,6.3163],[43.8259,6.3366],[43.8076,6.3552],[43.7857,6.3659],[43.7846,6.3859],[43.7688,6.4044],[43.7537,6.4187],[43.7347,6.4491],[43.7328,6.463],[43.7197,6.5055],[43.708,6.5294],[43.6965,6.5381],[43.6959,6.5489],[43.6811,6.5548],[43.6788,6.5642],[43.6732,6.5693],[43.6571,6.5784],[43.6512,6.5988],[43.6399,6.609],[43.6375,6.6168],[43.6279,6.6299],[43.6247,6.6455],[43.6026,6.6735],[43.5954,6.6787],[43.5831,6.6951],[43.5691,6.7102],[43.5554,6.7282],[43.5474,6.7427],[43.5468,6.7535],[43.5327,6.767],[43.5219,6.7832],[43.5004,6.8005],[43.4807,6.8206],[43.4658,6.8418],[43.4427,6.8577],[43.4303,6.8741],[43.3976,6.9031],[43.3882,6.936],[43.3477,6.9978],[43.3436,7.0211],[43.3363,7.0431],[43.3337,7.0845],[43.342,7.1097],[43.3461,7.1399],[43.3455,7.1689],[43.3514,7.202],[43.354,7.2296],[43.3612,7.2595],[43.3609,7.2747],[43.3519,7.3122],[43.3427,7.3271],[43.3558,7.3368],[43.3872,7.3543],[43.4075,7.3687],[43.425,7.3671],[43.4395,7.378],[43.4523,7.3836],[43.4585,7.3925],[43.4674,7.4012],[43.4905,7.4167],[43.5101,7.4394],[43.539,7.4435],[43.5637,7.4616],[43.5991,7.4787],[43.6371,7.5091],[43.6541,7.5171],[43.6743,7.5301],[43.6847,7.5401],[43.6947,7.5459],[43.7037,7.556],[43.7246,7.5622],[43.7522,7.5827],[43.7905,7.6009],[43.8723,7.6343],[43.8828,7.6416],[43.8958,7.6434],[43.9747,7.6753],[44.0113,7.6851],[44.0212,7.6896],[44.037,7.6889],[44.0726,7.6972],[44.0965,7.7052],[44.1213,7.7058],[44.2413,7.6991],[44.3205,7.6903],[44.4291,7.6686],[44.4647,7.6595],[44.5169,7.6507],[44.5381,7.6203],[44.5377,7.612],[44.543,7.5775],[44.5612,7.5409],[44.563,7.5214],[44.5722,7.5047],[44.5885,7.4488],[44.6034,7.4176],[44.6252,7.3646],[44.63,7.3378],[44.6383,7.3125],[44.6541,7.2917],[44.6731,7.246],[44.6914,7.2222],[44.706,7.1991],[44.7299,7.1705],[44.7287,7.1566],[44.7316,7.1282],[44.7512,7.1106],[44.7663,7.0737],[44.797,7.0472],[44.8077,7.026],[44.8518,6.9743],[44.8732,6.9332],[44.8898,6.925],[44.9109,6.9037],[44.9313,6.8755],[44.9426,6.8639],[44.9503,6.8509],[44.9622,6.8125],[44.9721,6.8046]]]]},"properties":{"feature_type":"ogaden_admin_boundary","ADMIN_LEVEL":2,"ZONE_NAME":"Korahe","ZONE_GADM_NAME":"Korahe","REGION":"Somali (Ogaden)","COUNTRY":"Ethiopia","AREA_KM2":32198.9,"GID":"ETH.9.5_1","source":"GADM 4.1 ETH ADM2 (official vector boundaries)"}},{"type":"Feature","geometry":{"type":"MultiPolygon","coordinates":[[[[39.5858,4.2965],[39.6188,4.3685],[39.6421,4.4359],[39.6556,4.4689],[39.6746,4.5052],[39.6901,4.5433],[39.7033,4.5682],[39.7098,4.5974],[39.717,4.6157],[39.7251,4.6331],[39.7459,4.6666],[39.7436,4.7235],[39.7585,4.8011],[39.7651,4.8468],[39.784,4.8906],[39.8045,4.9515],[39.8129,5.0021],[39.8336,5.0328],[39.8784,5.1403],[39.9073,5.2196],[39.9423,5.285],[40.0337,5.3968],[40.0634,5.3785],[40.0979,5.3649],[40.1346,5.3579],[40.1744,5.3534],[40.2084,5.3555],[40.2406,5.3661],[40.2767,5.3682],[40.3104,5.3763],[40.3695,5.3864],[40.5329,5.4106],[40.549,5.4277],[40.5635,5.4539],[40.581,5.4759],[40.6054,5.4903],[40.6331,5.5301],[40.6796,5.5406],[40.6944,5.5672],[40.7529,5.5944],[40.8115,5.6349],[40.8322,5.6559],[40.865,5.669],[40.9223,5.6834],[40.9821,5.6918],[41.0074,5.6894],[41.0408,5.6786],[41.0516,5.6606],[41.0732,5.6402],[41.1171,5.6343],[41.1278,5.6146],[41.1505,5.5545],[41.1647,5.548],[41.1614,5.5301],[41.1774,5.506],[41.1811,5.4842],[41.2117,5.4463],[41.2303,5.4193],[41.2392,5.4012],[41.2583,5.3764],[41.2846,5.3527],[41.2933,5.3299],[41.3015,5.3011],[41.3057,5.2795],[41.3045,5.261],[41.3122,5.2052],[41.3107,5.1824],[41.3124,5.1655],[41.3275,5.1511],[41.3595,5.0901],[41.3874,5.0456],[41.4042,5.0148],[41.4116,5.0075],[41.4357,4.9969],[41.4619,4.9828],[41.4773,4.9618],[41.4954,4.9302],[41.5143,4.9095],[41.529,4.8859],[41.5385,4.8657],[41.5514,4.8483],[41.56,4.8299],[41.5724,4.7914],[41.5882,4.7696],[41.6307,4.6981],[41.6417,4.6739],[41.6514,4.6593],[41.6787,4.6102],[41.6867,4.593],[41.6959,4.5848],[41.7212,4.5507],[41.7403,4.529],[41.7556,4.5055],[41.7677,4.4748],[41.7791,4.4639],[41.7919,4.4406],[41.8053,4.4246],[41.8244,4.4179],[41.8358,4.407],[41.8423,4.3966],[41.8608,4.3826],[41.8644,4.3675],[41.8929,4.3255],[41.9034,4.3048],[41.9264,4.2855],[41.9553,4.2779],[41.9815,4.2681],[42.0084,4.2656],[42.0275,4.2589],[42.0416,4.2502],[42.0572,4.2316],[42.0625,4.2065],[42.0646,4.1743],[42.0576,4.1504],[42.0574,4.1184],[42.0421,4.1124],[42.0137,4.0978],[42.0054,4.0863],[41.9946,4.075],[41.9825,4.0491],[41.9721,4.0427],[41.9588,4.0316],[41.938,4.0187],[41.9268,4.0026],[41.9139,3.9964],[41.9007,3.9853],[41.8836,3.9869],[41.8589,3.9867],[41.8436,3.9807],[41.7988,3.975],[41.7673,3.9804],[41.752,3.9745],[41.7245,3.9696],[41.6976,3.9721],[41.6774,3.9666],[41.6528,3.9664],[41.5784,3.961],[41.5558,3.9557],[41.4972,3.9611],[41.4721,3.9561],[41.433,3.9597],[41.3786,3.9573],[41.332,3.9592],[41.288,3.9633],[41.2151,3.9749],[41.1917,3.9599],[41.1721,3.9617],[41.1463,3.9764],[41.1127,3.9869],[41.1013,3.9977],[41.057,4.0264],[41.0418,4.05],[41.0255,4.0613],[41.0072,4.0778],[40.9814,4.0925],[40.9546,4.1245],[40.9369,4.1483],[40.881,4.1854],[40.8263,4.2372],[40.8056,4.2539],[40.7922,4.2699],[40.7752,4.2772],[40.7586,4.2686],[40.7439,4.258],[40.7211,4.2454],[40.706,4.243],[40.6871,4.2311],[40.6704,4.2294],[40.649,4.2211],[40.4396,4.1341],[40.3998,4.1159],[40.3846,4.101],[40.3726,4.1025],[40.2309,4.0463],[40.1908,4.0361],[40.1264,4.0024],[40.119,3.9963],[40.1066,3.9896],[40.0181,3.9474],[39.8619,3.8641],[39.8543,3.8462],[39.8366,3.8133],[39.771,3.6684],[39.7064,3.6047],[39.6165,3.5125],[39.609,3.5026],[39.5819,3.4781],[39.5786,3.4726],[39.5647,3.4261],[39.5589,3.4124],[39.5439,3.4015],[39.5274,3.3988],[39.5161,3.4044],[39.5116,3.4104],[39.4984,3.4538],[39.4937,3.4575],[39.486,3.4595],[39.4675,3.4566],[39.4237,3.4571],[39.4156,3.4623],[39.4056,3.4646],[39.3326,3.4662],[39.3291,3.4725],[39.3284,3.4782],[39.2988,3.4769],[39.2799,3.4729],[39.2005,3.4791],[39.1349,3.5106],[39.1065,3.5191],[39.0929,3.534],[39.2205,3.6025],[39.2847,3.6231],[39.3996,3.7957],[39.4828,3.942],[39.4997,3.9657],[39.4783,4.0403],[39.5091,4.1144],[39.5288,4.1667],[39.5397,4.2352],[39.567,4.2646],[39.5858,4.2965]]]]},"properties":{"feature_type":"ogaden_admin_boundary","ADMIN_LEVEL":2,"ZONE_NAME":"Liben","ZONE_GADM_NAME":"Liben","REGION":"Somali (Ogaden)","COUNTRY":"Ethiopia","AREA_KM2":36390.2,"GID":"ETH.9.6_1","source":"GADM 4.1 ETH ADM2 (official vector boundaries)"}},{"type":"Feature","geometry":{"type":"MultiPolygon","coordinates":[[[[42.2099,7.264],[42.1991,7.2914],[41.8961,7.4112],[41.8671,7.5328],[41.8678,7.5382],[41.9048,7.6359],[41.9425,7.7275],[41.9571,7.7748],[41.9124,7.8444],[41.9222,7.9781],[41.9263,8.0806],[41.9484,8.2009],[42.0271,8.323],[42.026,8.4258],[42.0413,8.4475],[42.0697,8.494],[42.0977,8.519],[42.2156,8.6112],[42.2327,8.635],[42.2397,8.6399],[42.2631,8.636],[42.275,8.6151],[42.2947,8.586],[42.3071,8.5596],[42.323,8.5368],[42.5026,8.4921],[42.5201,8.4787],[42.5298,8.4548],[42.5387,8.3972],[42.5501,8.3505],[42.567,8.2556],[42.5781,8.2285],[42.616,8.1596],[42.6306,8.1404],[42.6514,8.1297],[42.6614,8.1303],[42.6785,8.1473],[42.6841,8.1373],[42.6877,8.1172],[42.7011,8.0896],[42.7031,8.0657],[42.7133,8.0463],[42.7159,8.0],[42.7223,7.9823],[42.7246,7.9478],[42.7352,7.9179],[42.7317,7.8919],[42.7317,7.8457],[42.729,7.8291],[42.7295,7.8108],[42.7328,7.8024],[42.7446,7.7972],[42.7536,7.7843],[42.7549,7.776],[42.7735,7.761],[42.7884,7.7536],[42.807,7.7506],[42.8391,7.7378],[42.8642,7.7306],[42.8924,7.7157],[42.9104,7.7104],[42.9225,7.7092],[42.9756,7.6982],[43.0126,7.7009],[43.0298,7.7006],[43.0586,7.7077],[43.0676,7.7118],[43.1509,7.709],[43.1374,7.6776],[43.1263,7.6433],[43.1238,7.63],[43.1173,7.6184],[43.102,7.598],[43.0904,7.5896],[43.0868,7.5641],[43.0714,7.5424],[43.0696,7.5222],[43.0518,7.4886],[43.0508,7.4764],[43.0363,7.4669],[43.0325,7.4537],[43.0312,7.4388],[43.0243,7.4218],[43.0124,7.4093],[43.0,7.3914],[42.9934,7.3785],[42.991,7.3665],[42.9793,7.3567],[42.9755,7.3285],[42.97,7.3113],[42.9625,7.3039],[42.9587,7.2906],[42.941,7.2746],[42.9289,7.2608],[42.9226,7.2505],[42.9152,7.243],[42.9011,7.2063],[42.8845,7.1711],[42.8739,7.1422],[42.865,7.1336],[42.8555,7.1018],[42.853,7.0885],[42.8513,7.0696],[42.852,7.0536],[42.8307,7.0516],[42.807,7.0525],[42.7773,7.0434],[42.7299,7.0523],[42.6339,7.0632],[42.6152,7.0729],[42.5983,7.0784],[42.5203,7.0909],[42.508,7.0989],[42.4938,7.1052],[42.4704,7.1087],[42.4544,7.1214],[42.4387,7.1295],[42.4294,7.1375],[42.4123,7.1427],[42.3867,7.1467],[42.3359,7.1698],[42.3221,7.1796],[42.2767,7.2016],[42.2543,7.2042],[42.2341,7.2038],[42.2035,7.1946],[42.2098,7.2269],[42.2099,7.264]]]]},"properties":{"feature_type":"ogaden_admin_boundary","ADMIN_LEVEL":2,"ZONE_NAME":"Nogob (Fik)","ZONE_GADM_NAME":"Nogob","REGION":"Somali (Ogaden)","COUNTRY":"Ethiopia","AREA_KM2":14206.7,"GID":"ETH.9.7_1","source":"GADM 4.1 ETH ADM2 (official vector boundaries)"}},{"type":"Feature","geometry":{"type":"MultiPolygon","coordinates":[[[[44.954,5.7759],[45.0985,5.7559],[45.5359,5.7199],[45.6682,5.6223],[45.0801,5.0111],[45.0017,4.9322],[44.949,4.9849],[44.9282,5.0016],[44.9148,5.0176],[44.8778,5.0456],[44.8486,5.0778],[44.8047,5.1409],[44.7643,5.1865],[44.746,5.203],[44.6675,5.2643],[44.6517,5.2806],[44.6161,5.2962],[44.5847,5.304],[44.5095,5.3454],[44.4149,5.391],[44.387,5.4119],[44.3612,5.4266],[44.35,5.4399],[44.3134,5.4728],[44.3,5.4888],[44.286,5.4975],[44.2752,5.5157],[44.2486,5.5501],[44.2048,5.5584],[44.1766,5.5716],[44.1112,5.5929],[44.0935,5.6088],[44.062,5.6141],[43.9922,5.6329],[43.9472,5.6543],[43.9113,5.6945],[43.8958,5.7156],[43.8704,5.7352],[43.8385,5.7665],[43.8256,5.77],[43.8065,5.7815],[43.7786,5.8102],[43.7543,5.8162],[43.7225,5.8191],[43.7065,5.8081],[43.6936,5.7972],[43.6825,5.7835],[43.6721,5.7771],[43.6686,5.7651],[43.6547,5.7467],[43.6254,5.7199],[43.5921,5.7057],[43.5789,5.6947],[43.5434,5.6832],[43.5202,5.6706],[43.4998,5.6626],[43.4723,5.6578],[43.4344,5.6465],[43.2765,5.654],[43.2218,5.6583],[43.189,5.6637],[43.1639,5.6519],[43.1513,5.6481],[43.1337,5.6376],[43.0513,5.6421],[43.0152,5.654],[42.987,5.6553],[42.9389,5.6664],[42.9149,5.6731],[42.8956,5.6816],[42.8607,5.6915],[42.8458,5.694],[42.8305,5.7032],[42.7911,5.7145],[42.7572,5.7322],[42.7327,5.7419],[42.7257,5.756],[42.9126,5.9823],[43.0036,6.0903],[42.9793,6.0908],[42.9098,6.1047],[42.8478,6.1274],[42.8245,6.1377],[42.8028,6.176],[42.7798,6.2037],[42.7618,6.2375],[42.7418,6.2479],[42.7026,6.25],[42.644,6.2644],[42.6098,6.2691],[42.5643,6.2846],[42.5514,6.291],[42.5087,6.2994],[42.481,6.3095],[42.4519,6.3093],[42.3635,6.3173],[42.297,6.337],[42.2654,6.3634],[42.2534,6.3926],[42.155,6.4586],[42.1215,6.4989],[42.1186,6.5121],[42.1011,6.5437],[42.0411,6.5818],[42.004,6.5976],[42.0065,6.6144],[42.0004,6.6286],[41.9992,6.6416],[42.0135,6.6586],[42.0146,6.6804],[42.0255,6.7064],[42.0555,6.7488],[42.0629,6.8259],[42.0755,6.864],[42.0762,6.8867],[42.0987,6.9157],[42.1061,6.9302],[42.1342,6.9542],[42.1399,6.9673],[42.1626,7.0071],[42.1576,7.0513],[42.187,7.0964],[42.2047,7.141],[42.2035,7.1946],[42.2341,7.2038],[42.2543,7.2042],[42.2767,7.2016],[42.3221,7.1796],[42.3359,7.1698],[42.3867,7.1467],[42.4123,7.1427],[42.4294,7.1375],[42.4387,7.1295],[42.4544,7.1214],[42.4704,7.1087],[42.4938,7.1052],[42.508,7.0989],[42.5203,7.0909],[42.5983,7.0784],[42.6152,7.0729],[42.6339,7.0632],[42.7299,7.0523],[42.7773,7.0434],[42.807,7.0525],[42.8307,7.0516],[42.852,7.0536],[42.8673,7.0491],[42.8785,7.0535],[42.9018,7.0554],[42.9147,7.0787],[42.9216,7.0794],[42.9515,7.0957],[42.9712,7.1033],[42.996,7.1065],[43.0151,7.1237],[43.032,7.1303],[43.055,7.1445],[43.087,7.1687],[43.1026,7.1768],[43.1782,7.2336],[43.2113,7.2537],[43.2278,7.2725],[43.2516,7.2799],[43.2687,7.2891],[43.2949,7.3098],[43.3284,7.3189],[43.3427,7.3271],[43.3519,7.3122],[43.3609,7.2747],[43.3612,7.2595],[43.354,7.2296],[43.3514,7.202],[43.3455,7.1689],[43.3461,7.1399],[43.342,7.1097],[43.3337,7.0845],[43.3363,7.0431],[43.3436,7.0211],[43.3477,6.9978],[43.3882,6.936],[43.3976,6.9031],[43.4303,6.8741],[43.4427,6.8577],[43.4658,6.8418],[43.4807,6.8206],[43.5004,6.8005],[43.5219,6.7832],[43.5327,6.767],[43.5468,6.7535],[43.5474,6.7427],[43.5554,6.7282],[43.5691,6.7102],[43.5831,6.6951],[43.5954,6.6787],[43.6026,6.6735],[43.6247,6.6455],[43.6279,6.6299],[43.6375,6.6168],[43.6399,6.609],[43.6512,6.5988],[43.6571,6.5784],[43.6732,6.5693],[43.6788,6.5642],[43.6811,6.5548],[43.6959,6.5489],[43.6965,6.5381],[43.708,6.5294],[43.7197,6.5055],[43.7328,6.463],[43.7347,6.4491],[43.7537,6.4187],[43.7688,6.4044],[43.7846,6.3859],[43.7857,6.3659],[43.8076,6.3552],[43.8259,6.3366],[43.8298,6.3163],[43.8425,6.2981],[43.8491,6.2747],[43.8645,6.2562],[43.8708,6.23],[43.8859,6.2059],[43.8898,6.1856],[43.8944,6.1397],[43.9071,6.1215],[43.9094,6.0933],[43.9039,6.0698],[43.9318,6.0466],[43.9542,6.0432],[43.9897,6.0257],[44.0114,6.0123],[44.0499,5.9974],[44.0657,5.9817],[44.0839,5.9672],[44.1063,5.9581],[44.1249,5.9429],[44.1533,5.9318],[44.1669,5.9249],[44.1975,5.9163],[44.2238,5.8944],[44.2627,5.879],[44.3098,5.8791],[44.3598,5.8663],[44.4347,5.8646],[44.4702,5.8439],[44.5832,5.814],[44.6266,5.8095],[44.661,5.7971],[44.6872,5.7973],[44.8673,5.7806],[44.8865,5.7815],[44.8908,5.7764],[44.9077,5.7781],[44.954,5.7759]]]]},"properties":{"feature_type":"ogaden_admin_boundary","ADMIN_LEVEL":2,"ZONE_NAME":"Shabelle","ZONE_GADM_NAME":"Shabelle","REGION":"Somali (Ogaden)","COUNTRY":"Ethiopia","AREA_KM2":33172.3,"GID":"ETH.9.8_1","source":"GADM 4.1 ETH ADM2 (official vector boundaries)"}},{"type":"Feature","geometry":{"type":"MultiPolygon","coordinates":[[[[40.699,9.5328],[40.7145,9.566],[40.7218,9.5903],[40.7305,9.6068],[40.7353,9.6217],[40.7487,9.6513],[40.7631,9.6675],[40.8256,9.7635],[40.8473,9.7903],[40.9467,9.8804],[40.9966,9.9287],[41.0139,9.9392],[41.0196,9.9488],[41.0134,9.96],[40.9989,9.9678],[40.9658,9.9717],[40.9535,9.9875],[40.946,10.0013],[40.9366,10.0352],[40.9487,10.0678],[40.9538,10.0957],[40.9747,10.1566],[40.9788,10.1947],[40.9899,10.2399],[41.0051,10.3188],[41.015,10.3432],[41.0304,10.4004],[41.0318,10.422],[41.0471,10.4776],[41.057,10.5003],[41.0614,10.5167],[41.0713,10.541],[41.087,10.6006],[41.0824,10.6325],[41.0779,10.6395],[41.079,10.6588],[41.0773,10.6812],[41.09,10.697],[41.1149,10.7203],[41.1331,10.7441],[41.1492,10.7597],[41.1664,10.7797],[41.1909,10.7964],[41.2075,10.8203],[41.2201,10.8345],[41.232,10.8637],[41.2336,10.8912],[41.2407,10.9214],[41.2682,10.9579],[41.3003,10.9641],[41.3486,10.9625],[41.3922,10.9663],[41.4101,10.9585],[41.4841,10.9669],[41.5822,10.9621],[41.6342,10.9653],[41.6808,10.9639],[41.6995,10.9693],[41.7176,10.9648],[41.7395,10.9683],[41.7534,10.9773],[41.7551,10.9728],[41.774,10.9686],[41.7803,10.9581],[41.8076,10.956],[41.8601,10.9444],[41.9053,10.9371],[41.9043,10.914],[41.9158,10.9087],[41.9263,10.9087],[41.94,10.9245],[41.9673,10.914],[41.9925,10.9203],[42.0345,10.9213],[42.045,10.9539],[42.066,10.9507],[42.1133,10.9696],[42.1606,10.9665],[42.1711,10.9539],[42.1942,10.9581],[42.2425,10.9623],[42.2698,10.9791],[42.2992,10.9791],[42.3203,10.9833],[42.3486,10.9844],[42.3948,10.9686],[42.4327,10.9907],[42.4743,11.0319],[42.5808,11.0537],[42.6268,11.0733],[42.6512,11.0526],[42.6743,11.0379],[42.7215,11.0558],[42.7373,11.0484],[42.7615,11.0075],[42.7573,10.9707],[42.8203,10.957],[42.9361,10.9663],[42.933,10.9583],[42.897,10.9242],[42.7965,10.792],[42.7677,10.7342],[42.7408,10.6859],[42.7216,10.6605],[42.7069,10.619],[42.7047,10.5746],[42.716,10.5312],[42.7364,10.4986],[42.7497,10.4496],[42.7756,10.4047],[42.7857,10.3587],[42.8045,10.3148],[42.8194,10.2909],[42.8398,10.2665],[42.856,10.2256],[42.8837,10.1864],[42.8298,10.1492],[42.8022,10.1236],[42.77,10.1097],[42.747,10.1034],[42.7143,10.0839],[42.7203,10.0579],[42.7282,10.0423],[42.7464,10.0166],[42.7576,9.9952],[42.7587,9.9654],[42.7457,9.9221],[42.7365,9.9008],[42.7298,9.8662],[42.7017,9.841],[42.6874,9.8256],[42.6763,9.8044],[42.6622,9.7909],[42.6638,9.7765],[42.6474,9.7752],[42.6185,9.7584],[42.5681,9.7369],[42.5298,9.7276],[42.499,9.7211],[42.4485,9.722],[42.3766,9.7138],[42.3558,9.7179],[42.3462,9.7214],[42.3398,9.7196],[42.2935,9.7575],[42.251,9.7835],[42.2134,9.7837],[42.1858,9.7736],[42.0308,9.6185],[42.0189,9.6179],[42.0084,9.6222],[41.9964,9.6312],[41.9061,9.6793],[41.8732,9.6839],[41.8533,9.6737],[41.8087,9.6406],[41.801,9.6424],[41.791,9.649],[41.7738,9.6537],[41.7486,9.6364],[41.7491,9.6006],[41.728,9.489],[41.7346,9.4715],[41.7219,9.4675],[41.7023,9.4667],[41.6702,9.4706],[41.6542,9.4812],[41.6426,9.5151],[41.5642,9.5069],[41.5406,9.4996],[41.5221,9.4853],[41.491,9.4574],[41.479,9.46],[41.4326,9.4759],[41.3931,9.4858],[41.3365,9.4946],[41.3087,9.5031],[41.2797,9.5015],[41.2676,9.4994],[41.2523,9.5004],[41.2393,9.4988],[41.2199,9.4907],[41.1948,9.4623],[41.1705,9.4414],[41.1454,9.4246],[41.0835,9.4044],[41.0565,9.3911],[41.0301,9.3725],[41.0141,9.3572],[40.9707,9.3515],[40.9536,9.3356],[40.927,9.3231],[40.903,9.3182],[40.8741,9.3094],[40.8441,9.3048],[40.8248,9.3054],[40.8126,9.3109],[40.8085,9.3268],[40.7926,9.3674],[40.7888,9.3869],[40.7976,9.3956],[40.8281,9.3931],[40.8582,9.3854],[40.8912,9.3895],[40.9139,9.3972],[40.9275,9.4051],[40.9175,9.4218],[40.89,9.4486],[40.8622,9.463],[40.8424,9.4636],[40.8158,9.4527],[40.7832,9.4479],[40.7195,9.4439],[40.6986,9.4476],[40.6936,9.4444],[40.693,9.4989],[40.699,9.5328]]]]},"properties":{"feature_type":"ogaden_admin_boundary","ADMIN_LEVEL":2,"ZONE_NAME":"Siti","ZONE_GADM_NAME":"Siti","REGION":"Somali (Ogaden)","COUNTRY":"Ethiopia","AREA_KM2":30033.0,"GID":"ETH.9.9_1","source":"GADM 4.1 ETH ADM2 (official vector boundaries)"}}]}