{"type":"FeatureCollection","name":"FAO HWSD Somalia generalized topsoil pH","metadata":{"source":"FAO/IIASA HWSD v2 generalized visualization","disclaimer":"Screening layer only; values are generalized and require field or laboratory confirmation."},"features":[{"type":"Feature","properties":{"unit":"Northwest Highlands","ph":6.2},"geometry":{"type":"Polygon","coordinates":[[[42.0,8.0],[46.5,8.0],[47.0,11.8],[42.0,11.8],[42.0,8.0]]]}},{"type":"Feature","properties":{"unit":"Northern Limestone Belt","ph":8.2},"geometry":{"type":"Polygon","coordinates":[[[46.5,8.0],[51.5,8.0],[51.5,12.0],[47.0,11.8],[46.5,8.0]]]}},{"type":"Feature","properties":{"unit":"Central Calcareous Plains","ph":7.8},"geometry":{"type":"Polygon","coordinates":[[[43.0,4.0],[50.8,4.0],[51.5,8.0],[46.5,8.0],[43.0,7.0],[43.0,4.0]]]}},{"type":"Feature","properties":{"unit":"Bay Basement Uplands","ph":5.3},"geometry":{"type":"Polygon","coordinates":[[[41.0,1.0],[44.5,1.0],[44.5,4.5],[42.0,4.8],[41.0,1.0]]]}},{"type":"Feature","properties":{"unit":"Juba Shabelle Alluvium","ph":7.1},"geometry":{"type":"Polygon","coordinates":[[[40.8,-1.8],[44.0,-1.5],[47.0,4.0],[44.5,4.5],[41.0,1.0],[40.8,-1.8]]]}},{"type":"Feature","properties":{"unit":"Eastern Gypsic Coast","ph":8.8},"geometry":{"type":"Polygon","coordinates":[[[47.0,0.0],[51.5,0.0],[50.8,4.0],[47.0,4.0],[47.0,0.0]]]}},{"type":"Feature","properties":{"unit":"Southern Coastal Sands","ph":6.7},"geometry":{"type":"Polygon","coordinates":[[[44.0,-1.5],[47.0,-1.5],[47.0,4.0],[44.0,-1.5]]]}}]}