{"type":"FeatureCollection","name":"Somalia normalized FAO soil properties","metadata":{"provenance":"Normalized from the portal FAO/HWSD screening layer","repository_note":"No soil_data.geojson, QML, SLD, or style.json was present in the referenced GitHub repository; field verification required."},"features":[{"type":"Feature","properties":{"unit":"Northwest Highlands","ph":6.2,"pH_VALUE":6.2,"PH_CLASS":"Moderately Acidic","HEX_COLOR":"#F59E0B","SOIL_TYPE":"Chromic Cambisols","FAO_UNIT":"Cambisols","ORGANIC_MATTER":1.1,"ORGANIC_CARBON":0.64,"SALINITY_EC":0.7,"DRAINAGE_CLASS":"Well drained"},"geometry":{"type":"Polygon","coordinates":[[[42.0,8.0],[46.5,8.0],[47.0,11.8],[42.0,11.8],[42.0,8.0]]]}},{"type":"Feature","properties":{"unit":"Northern Limestone Belt","ph":8.2,"pH_VALUE":8.2,"PH_CLASS":"Moderately Alkaline","HEX_COLOR":"#06B6D4","SOIL_TYPE":"Calcaric Calcisols","FAO_UNIT":"Calcisols","ORGANIC_MATTER":0.6,"ORGANIC_CARBON":0.35,"SALINITY_EC":1.2,"DRAINAGE_CLASS":"Excessively drained"},"geometry":{"type":"Polygon","coordinates":[[[46.5,8.0],[51.5,8.0],[51.5,12.0],[47.0,11.8],[46.5,8.0]]]}},{"type":"Feature","properties":{"unit":"Central Calcareous Plains","ph":7.8,"pH_VALUE":7.8,"PH_CLASS":"Moderately Alkaline","HEX_COLOR":"#06B6D4","SOIL_TYPE":"Haplic Calcisols","FAO_UNIT":"Calcisols","ORGANIC_MATTER":0.7,"ORGANIC_CARBON":0.41,"SALINITY_EC":1.4,"DRAINAGE_CLASS":"Well drained"},"geometry":{"type":"Polygon","coordinates":[[[43.0,4.0],[50.8,4.0],[51.5,8.0],[46.5,8.0],[43.0,7.0],[43.0,4.0]]]}},{"type":"Feature","properties":{"unit":"Bay Basement Uplands","ph":5.3,"pH_VALUE":5.3,"PH_CLASS":"Strongly Acidic","HEX_COLOR":"#EF4444","SOIL_TYPE":"Chromic Vertisols","FAO_UNIT":"Vertisols","ORGANIC_MATTER":1.4,"ORGANIC_CARBON":0.81,"SALINITY_EC":0.8,"DRAINAGE_CLASS":"Imperfectly drained"},"geometry":{"type":"Polygon","coordinates":[[[41.0,1.0],[44.5,1.0],[44.5,4.5],[42.0,4.8],[41.0,1.0]]]}},{"type":"Feature","properties":{"unit":"Juba Shabelle Alluvium","ph":7.1,"pH_VALUE":7.1,"PH_CLASS":"Neutral / Near Neutral","HEX_COLOR":"#84CC16","SOIL_TYPE":"Calcaric Fluvisols","FAO_UNIT":"Fluvisols","ORGANIC_MATTER":1.8,"ORGANIC_CARBON":1.04,"SALINITY_EC":1.6,"DRAINAGE_CLASS":"Moderately drained"},"geometry":{"type":"Polygon","coordinates":[[[40.8,-1.8],[44.0,-1.5],[47.0,4.0],[44.5,4.5],[41.0,1.0],[40.8,-1.8]]]}},{"type":"Feature","properties":{"unit":"Eastern Gypsic Coast","ph":8.8,"pH_VALUE":8.8,"PH_CLASS":"Strongly Alkaline","HEX_COLOR":"#6366F1","SOIL_TYPE":"Gypsic Solonchaks","FAO_UNIT":"Solonchaks","ORGANIC_MATTER":0.4,"ORGANIC_CARBON":0.23,"SALINITY_EC":5.2,"DRAINAGE_CLASS":"Poorly drained"},"geometry":{"type":"Polygon","coordinates":[[[47.0,0.0],[51.5,0.0],[50.8,4.0],[47.0,4.0],[47.0,0.0]]]}},{"type":"Feature","properties":{"unit":"Southern Coastal Sands","ph":6.7,"pH_VALUE":6.7,"PH_CLASS":"Neutral / Near Neutral","HEX_COLOR":"#84CC16","SOIL_TYPE":"Calcaric Arenosols","FAO_UNIT":"Arenosols","ORGANIC_MATTER":0.8,"ORGANIC_CARBON":0.46,"SALINITY_EC":1.8,"DRAINAGE_CLASS":"Excessively drained"},"geometry":{"type":"Polygon","coordinates":[[[44.0,-1.5],[47.0,-1.5],[47.0,4.0],[44.0,-1.5]]]}}]}