{"type":"FeatureCollection","name":"Somalia indicative geology","metadata":{"status":"screening-only","disclaimer":"Generalized formations for web visualization; not a substitute for a geological survey."},"features":[{"type":"Feature","properties":{"formation_name":"Golis Limestone Belt","lithology":"Limestone","stratigraphic_era":"Mesozoic–Cenozoic"},"geometry":{"type":"Polygon","coordinates":[[[43.0,10.2],[48.8,10.2],[50.8,11.8],[47.0,12.0],[43.0,11.2],[43.0,10.2]]]}},{"type":"Feature","properties":{"formation_name":"Northern Sandstone Platform","lithology":"Sandstone","stratigraphic_era":"Mesozoic"},"geometry":{"type":"Polygon","coordinates":[[[43.0,8.2],[48.5,8.0],[49.8,10.3],[43.0,10.2],[43.0,8.2]]]}},{"type":"Feature","properties":{"formation_name":"Ogo Basaltic Province","lithology":"Basalt","stratigraphic_era":"Cenozoic"},"geometry":{"type":"Polygon","coordinates":[[[42.7,9.0],[44.8,8.8],[45.4,10.5],[43.0,10.8],[42.7,9.0]]]}},{"type":"Feature","properties":{"formation_name":"Juba–Shabelle Alluvial System","lithology":"Alluvium","stratigraphic_era":"Quaternary"},"geometry":{"type":"Polygon","coordinates":[[[41.0,-0.8],[43.0,-0.5],[46.0,4.8],[45.1,5.4],[42.0,2.0],[41.0,-0.8]]]}},{"type":"Feature","properties":{"formation_name":"Bur Basement Complex","lithology":"Basement Rock","stratigraphic_era":"Precambrian"},"geometry":{"type":"Polygon","coordinates":[[[42.0,2.0],[44.0,2.2],[44.5,4.5],[42.5,4.8],[42.0,2.0]]]}},{"type":"Feature","properties":{"formation_name":"Central Mudug Sedimentary Basin","lithology":"Limestone and Sandstone","stratigraphic_era":"Mesozoic–Cenozoic"},"geometry":{"type":"Polygon","coordinates":[[[45.0,4.5],[49.0,5.0],[50.5,8.0],[46.0,8.2],[45.0,4.5]]]}}]}