{
  "type": "FeatureCollection",
  "name": "Somalia Unified National Boundary",
  "features": [
    {
      "type": "Feature",
      "id": "SOM",
      "properties": {
        "name": "Federal Republic of Somalia",
        "name_so": "Jamhuuriyadda Federaalka Soomaaliya",
        "iso_a3": "SOM",
        "boundary_policy": "single sovereign national outline; no internal administrative or de facto boundaries"
      },
      "geometry": {
        "type": "Polygon",
        "coordinates": [[
          [41.58513, -1.68325], [42.04157, -0.91916], [43.13597, 0.2922],
          [44.06815, 1.05283], [45.56399, 2.04576], [46.56476, 2.85529],
          [47.74079, 4.2194], [48.59455, 5.33911], [49.4527, 6.80466],
          [50.07092, 8.08173], [50.55239, 9.19874], [50.83418, 10.27972],
          [51.04531, 10.6409], [51.04153, 11.16651], [51.13387, 11.74815],
          [51.1112, 12.02464], [50.73202, 12.0219], [50.25878, 11.67957],
          [49.72862, 11.5789], [49.26776, 11.43033], [48.948205, 11.410617],
          [48.378784, 11.375482], [48.021596, 11.193064], [47.525658, 11.127228],
          [46.645401, 10.816549], [45.556941, 10.698029], [44.614259, 10.442205],
          [44.117804, 10.445538], [43.666668, 10.864169], [43.47066, 11.27771],
          [43.145305, 11.46204], [42.776852, 10.926879], [42.55876, 10.57258],
          [42.92812, 10.02194], [43.296975, 9.540477], [43.67875, 9.18358],
          [46.948328, 7.996877], [47.78942, 8.003], [44.9636, 5.00162],
          [43.66087, 4.95755], [42.76967, 4.25259], [42.12861, 4.23413],
          [41.855083, 3.918912], [40.98105, 2.78452], [40.993, -0.85829],
          [41.58513, -1.68325]
        ]]
      }
    }
  ]
}
